[{"OBJECT_NAME":"HULIANWANG DIGUI-97","OBJECT_ID":"2025-258B","EPOCH":"2026-03-14T21:19:56.145792","MEAN_MOTION":13.29333414,"ECCENTRICITY":5.426e-5,"INCLINATION":50,"RA_OF_ASC_NODE":274.0981,"ARG_OF_PERICENTER":131.1782,"MEAN_ANOMALY":228.9137,"EPHEMERIS_TYPE":0,"CLASSIFICATION_TYPE":"U","NORAD_CAT_ID":66413,"ELEMENT_SET_NO":999,"REV_AT_EPOCH":1718,"BSTAR":0.0001162417,"MEAN_MOTION_DOT":-7.0e-7,"MEAN_MOTION_DDOT":0},{"OBJECT_NAME":"HULIANWANG DIGUI-98","OBJECT_ID":"2025-258C","EPOCH":"2026-03-14T21:07:51.315456","MEAN_MOTION":13.29335083,"ECCENTRICITY":5.957e-5,"INCLINATION":50.0038,"RA_OF_ASC_NODE":274.0992,"ARG_OF_PERICENTER":139.2773,"MEAN_ANOMALY":220.8144,"EPHEMERIS_TYPE":0,"CLASSIFICATION_TYPE":"U","NORAD_CAT_ID":66414,"ELEMENT_SET_NO":999,"REV_AT_EPOCH":1718,"BSTAR":0.00013436182,"MEAN_MOTION_DOT":-6.2e-7,"MEAN_MOTION_DDOT":0},{"OBJECT_NAME":"HULIANWANG DIGUI-99","OBJECT_ID":"2025-258D","EPOCH":"2026-03-14T22:08:03.804864","MEAN_MOTION":13.29332457,"ECCENTRICITY":4.661e-5,"INCLINATION":50.0036,"RA_OF_ASC_NODE":273.65,"ARG_OF_PERICENTER":124.3692,"MEAN_ANOMALY":235.7225,"EPHEMERIS_TYPE":0,"CLASSIFICATION_TYPE":"U","NORAD_CAT_ID":66415,"ELEMENT_SET_NO":999,"REV_AT_EPOCH":1718,"BSTAR":0.00012759056,"MEAN_MOTION_DOT":-6.5e-7,"MEAN_MOTION_DDOT":0},{"OBJECT_NAME":"HULIANWANG DIGUI-100","OBJECT_ID":"2025-258E","EPOCH":"2026-03-14T20:55:49.751904","MEAN_MOTION":13.2933552,"ECCENTRICITY":4.577e-5,"INCLINATION":50.004,"RA_OF_ASC_NODE":274.0582,"ARG_OF_PERICENTER":124.534,"MEAN_ANOMALY":235.5576,"EPHEMERIS_TYPE":0,"CLASSIFICATION_TYPE":"U","NORAD_CAT_ID":66416,"ELEMENT_SET_NO":999,"REV_AT_EPOCH":1719,"BSTAR":0.00012533265,"MEAN_MOTION_DOT":-6.6e-7,"MEAN_MOTION_DDOT":0},{"OBJECT_NAME":"HULIANWANG DIGUI-101","OBJECT_ID":"2025-258F","EPOCH":"2026-03-14T20:43:50.111616","MEAN_MOTION":13.29333592,"ECCENTRICITY":4.756e-5,"INCLINATION":49.9989,"RA_OF_ASC_NODE":273.9526,"ARG_OF_PERICENTER":121.0092,"MEAN_ANOMALY":239.0827,"EPHEMERIS_TYPE":0,"CLASSIFICATION_TYPE":"U","NORAD_CAT_ID":66417,"ELEMENT_SET_NO":999,"REV_AT_EPOCH":1719,"BSTAR":0.00010957189,"MEAN_MOTION_DOT":-7.3e-7,"MEAN_MOTION_DDOT":0},{"OBJECT_NAME":"HULIANWANG DIGUI-102","OBJECT_ID":"2025-258G","EPOCH":"2026-03-14T21:55:56.601120","MEAN_MOTION":13.29335498,"ECCENTRICITY":4.928e-5,"INCLINATION":50.0004,"RA_OF_ASC_NODE":273.5642,"ARG_OF_PERICENTER":134.3606,"MEAN_ANOMALY":225.7307,"EPHEMERIS_TYPE":0,"CLASSIFICATION_TYPE":"U","NORAD_CAT_ID":66418,"ELEMENT_SET_NO":999,"REV_AT_EPOCH":1719,"BSTAR":0.00012417541,"MEAN_MOTION_DOT":-6.6e-7,"MEAN_MOTION_DDOT":0},{"OBJECT_NAME":"HULIANWANG DIGUI-103","OBJECT_ID":"2025-258H","EPOCH":"2026-03-14T21:43:57.231264","MEAN_MOTION":13.29334587,"ECCENTRICITY":4.174e-5,"INCLINATION":49.9997,"RA_OF_ASC_NODE":273.5125,"ARG_OF_PERICENTER":122.1383,"MEAN_ANOMALY":237.953,"EPHEMERIS_TYPE":0,"CLASSIFICATION_TYPE":"U","NORAD_CAT_ID":66419,"ELEMENT_SET_NO":999,"REV_AT_EPOCH":1719,"BSTAR":0.00012921701,"MEAN_MOTION_DOT":-6.4e-7,"MEAN_MOTION_DDOT":0},{"OBJECT_NAME":"HULIANWANG DIGUI-104","OBJECT_ID":"2025-258J","EPOCH":"2026-03-14T21:31:57.215136","MEAN_MOTION":13.2933396,"ECCENTRICITY":5.234e-5,"INCLINATION":50.0014,"RA_OF_ASC_NODE":273.4929,"ARG_OF_PERICENTER":137.911,"MEAN_ANOMALY":222.1802,"EPHEMERIS_TYPE":0,"CLASSIFICATION_TYPE":"U","NORAD_CAT_ID":66420,"ELEMENT_SET_NO":999,"REV_AT_EPOCH":1718,"BSTAR":0.00012554292,"MEAN_MOTION_DOT":-6.6e-7,"MEAN_MOTION_DDOT":0},{"OBJECT_NAME":"HULIANWANG DIGUI-105","OBJECT_ID":"2025-285A","EPOCH":"2026-03-14T21:37:35.876352","MEAN_MOTION":13.29331621,"ECCENTRICITY":2.519e-5,"INCLINATION":50.004,"RA_OF_ASC_NODE":124.3731,"ARG_OF_PERICENTER":321.5045,"MEAN_ANOMALY":38.5809,"EPHEMERIS_TYPE":0,"CLASSIFICATION_TYPE":"U","NORAD_CAT_ID":66915,"ELEMENT_SET_NO":999,"REV_AT_EPOCH":1351,"BSTAR":0.00010836862,"MEAN_MOTION_DOT":-7.4e-7,"MEAN_MOTION_DDOT":0},{"OBJECT_NAME":"HULIANWANG DIGUI-106","OBJECT_ID":"2025-285B","EPOCH":"2026-03-12T15:17:23.017344","MEAN_MOTION":13.29152637,"ECCENTRICITY":0.00049191,"INCLINATION":50.0031,"RA_OF_ASC_NODE":132.4321,"ARG_OF_PERICENTER":57.5216,"MEAN_ANOMALY":302.6131,"EPHEMERIS_TYPE":0,"CLASSIFICATION_TYPE":"U","NORAD_CAT_ID":66916,"ELEMENT_SET_NO":999,"REV_AT_EPOCH":1321,"BSTAR":-1.4356008,"MEAN_MOTION_DOT":-0.0063632,"MEAN_MOTION_DDOT":0},{"OBJECT_NAME":"HULIANWANG DIGUI-107","OBJECT_ID":"2025-285C","EPOCH":"2026-03-14T21:13:33.075840","MEAN_MOTION":13.29331092,"ECCENTRICITY":2.131e-5,"INCLINATION":50.0015,"RA_OF_ASC_NODE":124.2668,"ARG_OF_PERICENTER":323.5755,"MEAN_ANOMALY":36.5102,"EPHEMERIS_TYPE":0,"CLASSIFICATION_TYPE":"U","NORAD_CAT_ID":66917,"ELEMENT_SET_NO":999,"REV_AT_EPOCH":1351,"BSTAR":0.00010801193,"MEAN_MOTION_DOT":-7.4e-7,"MEAN_MOTION_DDOT":0},{"OBJECT_NAME":"HULIANWANG DIGUI-108","OBJECT_ID":"2025-285D","EPOCH":"2026-03-14T21:01:30.376128","MEAN_MOTION":13.29331703,"ECCENTRICITY":2.027e-5,"INCLINATION":50.0037,"RA_OF_ASC_NODE":124.2418,"ARG_OF_PERICENTER":325.7302,"MEAN_ANOMALY":34.3557,"EPHEMERIS_TYPE":0,"CLASSIFICATION_TYPE":"U","NORAD_CAT_ID":66918,"ELEMENT_SET_NO":999,"REV_AT_EPOCH":1351,"BSTAR":0.00010692617,"MEAN_MOTION_DOT":-7.4e-7,"MEAN_MOTION_DDOT":0},{"OBJECT_NAME":"HULIANWANG DIGUI-109","OBJECT_ID":"2025-285E","EPOCH":"2026-03-14T20:49:28.960320","MEAN_MOTION":13.29331579,"ECCENTRICITY":2.078e-5,"INCLINATION":50.0062,"RA_OF_ASC_NODE":124.2202,"ARG_OF_PERICENTER":322.4417,"MEAN_ANOMALY":37.6441,"EPHEMERIS_TYPE":0,"CLASSIFICATION_TYPE":"U","NORAD_CAT_ID":66919,"ELEMENT_SET_NO":999,"REV_AT_EPOCH":1352,"BSTAR":0.00012273796,"MEAN_MOTION_DOT":-6.7e-7,"MEAN_MOTION_DDOT":0},{"OBJECT_NAME":"HULIANWANG DIGUI-110","OBJECT_ID":"2025-285F","EPOCH":"2026-03-14T22:25:43.567392","MEAN_MOTION":13.29331128,"ECCENTRICITY":2.165e-5,"INCLINATION":50.0094,"RA_OF_ASC_NODE":123.9351,"ARG_OF_PERICENTER":319.9665,"MEAN_ANOMALY":40.1192,"EPHEMERIS_TYPE":0,"CLASSIFICATION_TYPE":"U","NORAD_CAT_ID":66920,"ELEMENT_SET_NO":999,"REV_AT_EPOCH":1352,"BSTAR":0.00010611746,"MEAN_MOTION_DOT":-7.5e-7,"MEAN_MOTION_DDOT":0},{"OBJECT_NAME":"HULIANWANG DIGUI-111","OBJECT_ID":"2025-285G","EPOCH":"2026-03-14T22:13:41.782656","MEAN_MOTION":13.29331107,"ECCENTRICITY":2.065e-5,"INCLINATION":50.011,"RA_OF_ASC_NODE":123.9063,"ARG_OF_PERICENTER":323.8187,"MEAN_ANOMALY":36.2671,"EPHEMERIS_TYPE":0,"CLASSIFICATION_TYPE":"U","NORAD_CAT_ID":66921,"ELEMENT_SET_NO":999,"REV_AT_EPOCH":1352,"BSTAR":9.7839465e-5,"MEAN_MOTION_DOT":-7.9e-7,"MEAN_MOTION_DDOT":0},{"OBJECT_NAME":"HULIANWANG DIGUI-112","OBJECT_ID":"2025-285H","EPOCH":"2026-03-14T22:01:39.595296","MEAN_MOTION":13.29331778,"ECCENTRICITY":2.146e-5,"INCLINATION":50.0073,"RA_OF_ASC_NODE":123.8324,"ARG_OF_PERICENTER":323.7048,"MEAN_ANOMALY":36.3809,"EPHEMERIS_TYPE":0,"CLASSIFICATION_TYPE":"U","NORAD_CAT_ID":66922,"ELEMENT_SET_NO":999,"REV_AT_EPOCH":1352,"BSTAR":0.00013285621,"MEAN_MOTION_DOT":-6.2e-7,"MEAN_MOTION_DDOT":0}]
