HULIANWANG DIGUI-97     
1 66413U 25258B   26073.88884428 -.00000070  00000+0  11624-3 0  9994
2 66413  50.0000 274.0981 0000542 131.1782 228.9137 13.29333414 17184
HULIANWANG DIGUI-98     
1 66414U 25258C   26073.88045504 -.00000062  00000+0  13436-3 0  9993
2 66414  50.0038 274.0992 0000595 139.2773 220.8144 13.29335083 17188
HULIANWANG DIGUI-99     
1 66415U 25258D   26073.92226626 -.00000065  00000+0  12759-3 0  9995
2 66415  50.0036 273.6500 0000466 124.3692 235.7225 13.29332457 17186
HULIANWANG DIGUI-100    
1 66416U 25258E   26073.87210361 -.00000066  00000+0  12533-3 0  9990
2 66416  50.0040 274.0582 0000457 124.5340 235.5576 13.29335520 17191
HULIANWANG DIGUI-101    
1 66417U 25258F   26073.86377444 -.00000073  00000+0  10957-3 0  9992
2 66417  49.9989 273.9526 0000475 121.0092 239.0827 13.29333592 17198
HULIANWANG DIGUI-102    
1 66418U 25258G   26073.91384955 -.00000066  00000+0  12418-3 0  9990
2 66418  50.0004 273.5642 0000492 134.3606 225.7307 13.29335498 17194
HULIANWANG DIGUI-103    
1 66419U 25258H   26073.90552351 -.00000064  00000+0  12922-3 0  9995
2 66419  49.9997 273.5125 0000417 122.1383 237.9530 13.29334587 17194
HULIANWANG DIGUI-104    
1 66420U 25258J   26073.89718999 -.00000066  00000+0  12554-3 0  9990
2 66420  50.0014 273.4929 0000523 137.9110 222.1802 13.29333960 17181
HULIANWANG DIGUI-105    
1 66915U 25285A   26073.90110968 -.00000074  00000+0  10837-3 0  9994
2 66915  50.0040 124.3731 0000251 321.5045  38.5809 13.29331621 13511
HULIANWANG DIGUI-106    
1 66916U 25285B   26071.63707196 -.00636320  00000+0 -14356+1 0  9995
2 66916  50.0031 132.4321 0004919  57.5216 302.6131 13.29152637 13216
HULIANWANG DIGUI-107    
1 66917U 25285C   26073.88441060 -.00000074  00000+0  10801-3 0  9994
2 66917  50.0015 124.2668 0000213 323.5755  36.5102 13.29331092 13517
HULIANWANG DIGUI-108    
1 66918U 25285D   26073.87604602 -.00000074  00000+0  10693-3 0  9996
2 66918  50.0037 124.2418 0000202 325.7302  34.3557 13.29331703 13514
HULIANWANG DIGUI-109    
1 66919U 25285E   26073.86769630 -.00000067  00000+0  12274-3 0  9998
2 66919  50.0062 124.2202 0000207 322.4417  37.6441 13.29331579 13520
HULIANWANG DIGUI-110    
1 66920U 25285F   26073.93453203 -.00000075  00000+0  10612-3 0  9997
2 66920  50.0094 123.9351 0000216 319.9665  40.1192 13.29331128 13526
HULIANWANG DIGUI-111    
1 66921U 25285G   26073.92617804 -.00000079  00000+0  97839-4 0  9997
2 66921  50.0110 123.9063 0000206 323.8187  36.2671 13.29331107 13523
HULIANWANG DIGUI-112    
1 66922U 25285H   26073.91781939 -.00000062  00000+0  13286-3 0  9993
2 66922  50.0073 123.8324 0000214 323.7048  36.3809 13.29331778 13523
